{"type": "FeatureCollection", "features": [{"type": "Feature", "properties": {"OBJECTID_1": "3,4,6,5,2", "OBJECTID": "3,4,6,5,2", "District": "3,4,6,5,2", "Shape.STArea()": "77,106,614.52,35,459,185.29,38,882,745.18,89,713,095.53,34,772,150.01", "Shape.STLength()": "60,451.07,37,090.35,40,750.35,67,527.42,31,021.06", "Label": "District 3,District 4,District 6,District 5,District 2", "SHAPE_STAr": "35,459,185.29,38,882,745.18,34,772,150.01,77,104,882.45,93,995,237.69", "SHAPE_STLe": "37,090.35,40,750.35,73,143.04,75,069.65,31,021.06", "URL": "https://vwgisportal.cityofsantacruz.com/img/Newsome.png,https://vwgisportal.cityofsantacruz.com/img/kalantariJohnson.png,https://vwgisportal.cityofsantacruz.com/img/Ohara.png,https://vwgisportal.cityofsantacruz.com/img/Golder.png,https://vwgisportal.city", "Email": "mailto:skalantari-johnson@santacruzca.gov,mailto:snewsome@santacruzca.gov,mailto:rgolder@santacruzca.gov,mailto:sohara@santacruzca.gov,mailto:sbrunner@santacruzca.gov", "TermEnd": "December 2028,December 2026", "TermBegin": "March 2024,November 2022", "NameCouncil": "Shebreh Kalantari-Johnson,Sonja Brunner,Scott Newsome,Susie O'Hara,Vice Mayor Renee Golder"}, "geometry": {"type": "Polygon", "coordinates": [[[-122.014927, 36.992899], [-122.014941, 36.99293], [-122.01534, 36.993275], [-122.015381, 36.993685], [-122.014778, 36.993763], [-122.015164, 36.996154], [-122.017826, 36.995739], [-122.017894, 36.996142], [-122.017815, 36.996656], [-122.018206, 36.997155], [-122.018518, 36.997108], [-122.018677, 36.997366], [-122.018635, 36.997585], [-122.018445, 36.99826], [-122.017972, 36.998585], [-122.016959, 36.999221], [-122.016953, 36.999567], [-122.017228, 37.000084], [-122.017655, 37.000203], [-122.018083, 37.000408], [-122.01813, 37.000544], [-122.018467, 37.000724], [-122.018628, 37.00079], [-122.018945, 37.000677], [-122.019295, 37.000622], [-122.019439, 37.000674], [-122.019573, 37.000804], [-122.019832, 37.000766], [-122.020089, 37.000849], [-122.020214, 37.000979], [-122.020339, 37.001018], [-122.020286, 37.001141], [-122.020525, 37.001411], [-122.020456, 37.001566], [-122.020404, 37.001596], [-122.020337, 37.001594], [-122.020279, 37.001729], [-122.020331, 37.001765], [-122.020344, 37.001819], [-122.020128, 37.002435], [-122.020083, 37.003111], [-122.019494, 37.003096], [-122.019451, 37.003182], [-122.019134, 37.003285], [-122.018621, 37.003392], [-122.018333, 37.003119], [-122.018283, 37.002864], [-122.018523, 37.002418], [-122.016975, 37.002734], [-122.016671, 37.002406], [-122.016668, 37.002353], [-122.010022, 37.002457], [-122.010088, 37.002274], [-122.010232, 37.002159], [-122.010461, 37.002051], [-122.010522, 37.001961], [-122.010412, 37.001799], [-122.010466, 37.001735], [-122.010673, 37.001681], [-122.010837, 37.001702], [-122.010951, 37.001612], [-122.010936, 37.001333], [-122.010632, 37.001019], [-122.010276, 37.000763], [-122.009952, 37.000419], [-122.009799, 37.000094], [-122.009783, 36.999906], [-122.009681, 36.999575], [-122.009684, 36.999405], [-122.009734, 36.999125], [-122.009677, 36.999094], [-122.009684, 36.998506], [-122.00961, 36.998357], [-122.009623, 36.99822], [-122.009259, 36.998049], [-122.009153, 36.998158], [-122.009009, 36.998268], [-122.008769, 36.998396], [-122.008504, 36.998478], [-122.008226, 36.998513], [-122.007505, 36.998509], [-122.007311, 36.998491], [-122.007034, 36.998425], [-122.006607, 36.998279], [-122.006335, 36.998229], [-122.006056, 36.998232], [-122.005607, 36.998303], [-122.005484, 36.998343], [-122.005326, 36.998422], [-122.005077, 36.998593], [-122.004936, 36.998721], [-122.004774, 36.99893], [-122.004314, 36.999684], [-122.004215, 36.999795], [-122.004026, 36.99993], [-122.003533, 37.000176], [-122.003378, 37.000286], [-122.003208, 37.000449], [-122.002871, 37.000863], [-122.002729, 37.00108], [-122.002351, 37.001796], [-122.002077, 37.002407], [-122.001995, 37.002639], [-122.001953, 37.002819], [-122.001905, 37.003336], [-122.001857, 37.003551], [-122.00178, 37.003762], [-122.00152, 37.004291], [-122.001471, 37.0045], [-122.001486, 37.004701], [-122.001569, 37.004989], [-122.001614, 37.005239], [-122.001704, 37.006], [-122.001754, 37.00692], [-122.001799, 37.007197], [-122.001468, 37.007196], [-122.001138, 37.006956], [-121.997624, 37.00696], [-121.997635, 37.008484], [-121.996825, 37.00808], [-121.996841, 37.009751], [-121.995501, 37.009748], [-121.994526, 37.009764], [-121.99407, 37.009567], [-121.994105, 37.009297], [-121.996089, 37.006667], [-121.996089, 37.006214], [-121.992281, 37.006252], [-121.992231, 37.00397], [-121.992087, 37.003786], [-121.992091, 37.003636], [-121.992024, 37.003155], [-121.992227, 37.002999], [-121.992213, 37.00265], [-121.991974, 37.002402], [-121.991858, 37.00163], [-121.992022, 37.001305], [-121.991989, 37.000875], [-121.991809, 36.999954], [-121.991465, 36.999236], [-121.991446, 36.998782], [-121.991178, 36.998038], [-121.990928, 36.997764], [-121.990938, 36.997635], [-121.991076, 36.997471], [-121.991051, 36.996972], [-121.989895, 36.996459], [-121.989524, 36.996228], [-121.989118, 36.995754], [-121.98873, 36.995336], [-121.987605, 36.995341], [-121.987491, 36.99521], [-121.987467, 36.995043], [-121.987694, 36.994965], [-121.98787, 36.99509], [-121.988277, 36.995089], [-121.9882, 36.994937], [-121.988043, 36.994692], [-121.987948, 36.99437], [-121.987883, 36.994212], [-121.987798, 36.994062], [-121.98772, 36.993935], [-121.987452, 36.993667], [-121.98728, 36.993103], [-121.987159, 36.992859], [-121.98709, 36.992834], [-121.986963, 36.99261], [-121.987104, 36.992405], [-121.986906, 36.992592], [-121.986746, 36.992184], [-121.986815, 36.991887], [-121.986773, 36.991734], [-121.986981, 36.991483], [-121.987287, 36.991322], [-121.987486, 36.989944], [-121.987927, 36.989346], [-121.987823, 36.989356], [-121.988701, 36.988332], [-121.989149, 36.987901], [-121.989665, 36.987314], [-121.989797, 36.987186], [-121.989666, 36.987177], [-121.989562, 36.987016], [-121.989806, 36.986508], [-121.990165, 36.986277], [-121.99056, 36.985845], [-121.991174, 36.985499], [-121.991247, 36.985328], [-121.991404, 36.985302], [-121.991723, 36.985171], [-121.991878, 36.985094], [-121.992112, 36.98493], [-121.99235, 36.984822], [-121.993023, 36.984596], [-121.993346, 36.984457], [-121.994471, 36.983739], [-121.99483, 36.983458], [-121.994589, 36.983223], [-121.994371, 36.982948], [-121.994427, 36.982781], [-121.994824, 36.982165], [-121.995, 36.982324], [-121.995791, 36.981706], [-121.996012, 36.981345], [-121.99613, 36.981247], [-121.996402, 36.981878], [-121.996529, 36.982066], [-121.99670134168645, 36.98226738523872], [-121.99648405080796, 36.9819929591761], [-121.99638305127496, 36.98181595934075], [-121.99614350259202, 36.98125215259177], [-121.99618286785883, 36.981220276548434], [-121.99617914024023, 36.98120768780782], [-121.99617, 36.981215], [-121.996093, 36.98098], [-121.995926, 36.980643], [-121.995471, 36.980145], [-121.995282, 36.979988], [-121.995109, 36.97987], [-121.994931, 36.979684], [-121.99465409468631, 36.97949375210462], [-121.994346, 36.9794], [-121.994468, 36.979229], [-121.99467941389535, 36.979309889627906], [-121.994712, 36.979302], [-121.995352, 36.978605], [-121.995512, 36.978212], [-121.995012, 36.978025], [-121.99527, 36.977514], [-121.995373, 36.977369], [-121.99555, 36.977369], [-121.996027, 36.976088], [-121.99659829520608, 36.976299477542376], [-121.9975683634195, 36.974632174603855], [-121.99748224598471, 36.9744585697149], [-121.99783563659153, 36.97378949102711], [-121.99752881278417, 36.97343143561811], [-121.99776624047246, 36.97351933330599], [-121.99845289031484, 36.97222046190026], [-121.9989165585263, 36.97187111309789], [-121.99922737214817, 36.97149416142251], [-121.9993987185722, 36.97105787746348], [-122.0002905843724, 36.96916548620192], [-122.00110907013833, 36.96837240569262], [-122.00237201910826, 36.96829898680331], [-122.00242306531489, 36.96821569423874], [-122.00251532252848, 36.96813279892411], [-122.00209864929369, 36.96812360337464], [-122.0019097831733, 36.96807463954638], [-122.001522, 36.968102], [-122.0015, 36.967951], [-122.001621, 36.967973], [-122.001618, 36.967957], [-122.00221372792257, 36.96783787420908], [-122.00194479576628, 36.96783808931112], [-122.00173079423442, 36.9677499725689], [-122.00105129353878, 36.96689812366719], [-122.000991359151, 36.966786767139446], [-122.00096287194864, 36.96666764227047], [-122.00097080880532, 36.96594079468753], [-122.00094738685098, 36.965781800261084], [-122.00082857260054, 36.965514161266995], [-122.00063129514785, 36.965202350589976], [-122.0005946529496, 36.96508803117054], [-122.00052371014331, 36.96494960712064], [-122.00026670623166, 36.96458307852439], [-122.00021998729275, 36.964422892249274], [-122.00021592572156, 36.964300879683634], [-122.00039267084271, 36.963142604454575], [-122.00036518858238, 36.962777197996246], [-122.0003729472187, 36.96272243780905], [-122.00067126569644, 36.96222788194716], [-122.00040383792128, 36.962137362203485], [-122.00041781846907, 36.96187028793104], [-122.00049414978368, 36.96186599030946], [-122.00060801095664, 36.96192087522387], [-122.00071645094486, 36.96191391761358], [-122.0009446696445, 36.961843244719304], [-122.00105550672419, 36.961836099132135], [-122.0011604834003, 36.96180668043949], [-122.00121738284678, 36.96174388435889], [-122.00117320737418, 36.961431045870455], [-122.00120206610767, 36.961366438920166], [-122.00126205213274, 36.96135458301254], [-122.00131018016074, 36.9613810799961], [-122.00133659602534, 36.961420601936524], [-122.00139323485453, 36.96166422042971], [-122.00149132420817, 36.96246976251647], [-122.00156232583674, 36.962725304325964], [-122.00185582247305, 36.96272620818969], [-122.00274175644826, 36.962779795406156], [-122.00273842726429, 36.96276719740698], [-122.0028271027282, 36.962827947932155], [-122.00303122327368, 36.96289181190973], [-122.00354902919251, 36.962958594892406], [-122.00397914450163, 36.96306220427418], [-122.00423131518447, 36.96307924816731], [-122.00462911831175, 36.96313477386632], [-122.00483304632877, 36.96324769495216], [-122.00526992512167, 36.96334527624178], [-122.00551537619936, 36.963341784122086], [-122.00583906052917, 36.963436280849415], [-122.005957476378, 36.963433824356976], [-122.00614186830143, 36.96335943384166], [-122.00626800783779, 36.963364628359614], [-122.00652187015271, 36.9634359057665], [-122.00710267937649, 36.96352376779943], [-122.00743086184411, 36.96353696745825], [-122.00764414403413, 36.9636347057936], [-122.00782708613056, 36.96364952155687], [-122.00811454505579, 36.96371144209585], [-122.00819071886592, 36.96371527377974], [-122.00820087544473, 36.9635872778719], [-122.00825826696357, 36.96357766253339], [-122.00828491003045, 36.96370604672189], [-122.00854228766049, 36.963756549765655], [-122.00856064302465, 36.96378318203157], [-122.00866565170999, 36.963815562098375], [-122.00903995628082, 36.96381270252799], [-122.00922008962019, 36.96383926876284], [-122.00939428053809, 36.96381513258792], [-122.00956284498126, 36.96386077291395], [-122.01014250835752, 36.963785815884975], [-122.0107678109529, 36.963775170732916], [-122.0112107531186, 36.96387197546912], [-122.01145086245043, 36.96395077863215], [-122.0115612957457, 36.96393746241262], [-122.01172496393642, 36.96396607212691], [-122.01183579419984, 36.96395205839098], [-122.01189163026208, 36.96389676594067], [-122.01191281924852, 36.963698173751105], [-122.01197527730538, 36.96343666645901], [-122.01195267556923, 36.963279063785855], [-122.01196355896145, 36.963229317850605], [-122.01205465082954, 36.96311954125608], [-122.0120562297032, 36.96309778510318], [-122.01212618977041, 36.96304647737462], [-122.01217217134705, 36.96308977333406], [-122.01218959465555, 36.96312945727551], [-122.01220932450848, 36.96329142824403], [-122.01221944008789, 36.96364467244287], [-122.01220524615506, 36.963908007043884], [-122.0121549531405, 36.96416376217107], [-122.01254404049735, 36.96423787267158], [-122.0127077214569, 36.963940324830205], [-122.01286198019663, 36.96377311302908], [-122.01354611970592, 36.96359888693328], [-122.01492452218343, 36.96336570228458], [-122.01613853904249, 36.963310573471844], [-122.01716608653031, 36.963228711112], [-122.01791856881862, 36.96310735908062], [-122.02072140293409, 36.96270551689253], [-122.02143873621442, 36.96258997054753], [-122.02175765385702, 36.962468383687764], [-122.02201106177102, 36.96232808172884], [-122.0223768902446, 36.9623135158778], [-122.0227871287848, 36.962178137140555], [-122.02206048087648, 36.961686578669955], [-122.02183411469133, 36.96164599317804], [-122.01892603715928, 36.959676068627665], [-122.018776350963, 36.95981198772278], [-122.01742882966992, 36.95889757799811], [-122.01759692411306, 36.95873871209727], [-122.01753172015735, 36.958566318583514], [-122.01751001192774, 36.95857069428169], [-122.01741503330518, 36.95835151653994], [-122.01744755987991, 36.95834352059714], [-122.01727725507249, 36.95788317715826], [-122.01733359046143, 36.95785574017247], [-122.01710578787387, 36.9572582984903], [-122.01735563985277, 36.95719766447037], [-122.01758703494032, 36.95780441683996], [-122.01767305797192, 36.95778605845648], [-122.0177496457313, 36.9579838838556], [-122.01780567581743, 36.9580114634862], [-122.01794884319277, 36.95835218643971], [-122.01827795229828, 36.95857406594599], [-122.0183212484347, 36.95870855297973], [-122.01828156997034, 36.95875300152497], [-122.02051379050744, 36.96026556617696], [-122.02059093689134, 36.960267815285825], [-122.02094769626504, 36.96051001366179], [-122.02080242329046, 36.96065021073219], [-122.02146366789587, 36.96109823409233], [-122.02155721340857, 36.96100915506192], [-122.02172798211582, 36.96112570485726], [-122.02164034806175, 36.961206578186726], [-122.02203704168159, 36.96145848160852], [-122.02201711926806, 36.96147663920372], [-122.02290869262228, 36.9620787258093], [-122.02302834096264, 36.96195769827016], [-122.02329633716319, 36.96191028830639], [-122.02339718857016, 36.9619405943746], [-122.02349003441955, 36.961863696142494], [-122.0235971683935, 36.961670853720385], [-122.02374959574031, 36.961521943384014], [-122.0238699272605, 36.96143131567426], [-122.02454544602946, 36.96106631082072], [-122.0247032544782, 36.96090841160752], [-122.02495135297526, 36.96074176237473], [-122.0253839980211, 36.95992876548152], [-122.02533921885947, 36.95989453028495], [-122.0253588294755, 36.95986998316737], [-122.0253376210551, 36.9598385901859], [-122.02538923817772, 36.95978708713393], [-122.02539017566342, 36.9597691097104], [-122.02537054343138, 36.95975853516125], [-122.02547140878035, 36.95951344012306], [-122.02573512129686, 36.9595585435023], [-122.02546936310985, 36.95951157979952], [-122.02552861686213, 36.959256849263724], [-122.0255607991116, 36.95922689453379], [-122.02558363416175, 36.95915334731456], [-122.02560154661379, 36.95898701701707], [-122.025660833628, 36.95888237864421], [-122.02565059223078, 36.95879576529751], [-122.02569526209626, 36.958729520364], [-122.02571348224899, 36.958569840387305], [-122.02578332598709, 36.95834638382299], [-122.02580638355484, 36.958206269284496], [-122.02580202562243, 36.95788500004207], [-122.02572630086493, 36.957756453406965], [-122.02563558763927, 36.957642075736146], [-122.0255981349928, 36.95755882387876], [-122.02545834572945, 36.95750788915683], [-122.02542444470211, 36.957477130870565], [-122.02522952466747, 36.957187669153114], [-122.0252205239155, 36.95714905748898], [-122.02527722808681, 36.95712053758375], [-122.0252865597942, 36.957087147309295], [-122.02525529140317, 36.95702676407672], [-122.02517050270917, 36.95694614227408], [-122.02507133545164, 36.956763797784916], [-122.02488694716213, 36.956651964965324], [-122.02474628363304, 36.95651389251089], [-122.02461579126067, 36.956436400740735], [-122.02467896937807, 36.95629269783294], [-122.02464505420353, 36.95617270132736], [-122.02453023614808, 36.95594247510318], [-122.02441377534383, 36.95575652932433], [-122.02429663603785, 36.955620942495294], [-122.02438867384228, 36.95554897721248], [-122.02438797705244, 36.95548455509741], [-122.02441530079031, 36.95539575904499], [-122.0244846156127, 36.95534174950448], [-122.02449647802496, 36.95528692844115], [-122.02456817442192, 36.955182529413435], [-122.02465182982309, 36.95501171243082], [-122.02466755264432, 36.95493515562156], [-122.02465093248014, 36.954871491445395], [-122.02467496234726, 36.95477562263146], [-122.02460755308573, 36.95474248157419], [-122.02459470517387, 36.95467070244936], [-122.02462392907628, 36.95463006523398], [-122.02469344032953, 36.95465092806582], [-122.02477866554605, 36.95458590055999], [-122.02492992043219, 36.95439284483225], [-122.02493624309332, 36.95429168056537], [-122.02496759295846, 36.95425024584303], [-122.02512396485005, 36.95385149651538], [-122.02515777069686, 36.95369607278813], [-122.02514443554014, 36.953658044122534], [-122.02506695762422, 36.953566319145985], [-122.02505709050595, 36.95345322224411], [-122.02515554868481, 36.95329808295998], [-122.02515861514976, 36.95307038063602], [-122.02521411168298, 36.95301870702423], [-122.0252392781984, 36.95301746311248], [-122.02527651608898, 36.95304178384647], [-122.02528908803822, 36.95307314198394], [-122.02538485668006, 36.95311794786487], [-122.02539037800106, 36.95308367740948], [-122.02546117866308, 36.95298277531308], [-122.02549995401458, 36.95288593027051], [-122.02549353229003, 36.952839384199926], [-122.0254143994037, 36.95276699534497], [-122.02549255306032, 36.952750322844544], [-122.02551567018047, 36.95272182316745], [-122.02552564708456, 36.952687447548065], [-122.02551030077612, 36.952573902388224], [-122.02552163905976, 36.952536178172565], [-122.0256318594685, 36.95261325639355], [-122.02568102073297, 36.95261268701908], [-122.02583955195641, 36.95250240704926], [-122.02595697934386, 36.9523272657125], [-122.02597911819251, 36.952319547486866], [-122.02598999714942, 36.952339416852084], [-122.02600663122993, 36.95232935458567], [-122.02597124398469, 36.952163838106706], [-122.02588387464152, 36.95206987122291], [-122.02585592491555, 36.951951020846735], [-122.02586260216822, 36.9518512982922], [-122.02593067504637, 36.95178605729593], [-122.02600193269008, 36.95175946701598], [-122.02606457755962, 36.951801324586896], [-122.02603373910799, 36.95169173119983], [-122.0260441750152, 36.95155485308746], [-122.02589185044707, 36.95145592281399], [-122.025876625439, 36.95142391276208], [-122.02588125424256, 36.95137098678855], [-122.02594302272952, 36.95124295341394], [-122.02594850597747, 36.951198372956426], [-122.02599466465723, 36.95114932466131], [-122.02610452418885, 36.95108339245196], [-122.02616237508141, 36.95113696324812], [-122.0261671571983, 36.95122020181937], [-122.02631049298226, 36.951316717066504], [-122.02641659809666, 36.95132920178661], [-122.02646196822529, 36.95131075530269], [-122.02649339183361, 36.95127360342683], [-122.02648113260345, 36.95118283962001], [-122.02654446217629, 36.95107647973692], [-122.02656275396538, 36.9509908825651], [-122.02650210911354, 36.95084322412635], [-122.02647836580954, 36.95056884164045], [-122.02651993654786, 36.95050629394576], [-122.02654073193112, 36.950395660583055], [-122.02656383735467, 36.9503777993473], [-122.02659416144084, 36.95038965483778], [-122.02660973319047, 36.95042778111312], [-122.02674939417274, 36.95059408944341], [-122.02671434510319, 36.950820857946745], [-122.02672437216638, 36.950861735139924], [-122.02678077605476, 36.950938120993314], [-122.02679150631455, 36.95099569066303], [-122.02682181854317, 36.95099126271476], [-122.02684293051033, 36.95095365820055], [-122.02684767702398, 36.95077289643252], [-122.0268902178886, 36.95071438943502], [-122.02696401873926, 36.95071144572399], [-122.02707699745638, 36.95083753891364], [-122.02709395366581, 36.950906627988346], [-122.02708930649884, 36.95096429540273], [-122.02693601485846, 36.95104855343408], [-122.0268879938432, 36.95114260471887], [-122.02702956859366, 36.95110052884695], [-122.02705979992811, 36.95110863289569], [-122.02704543495406, 36.95123253953189], [-122.02707164354568, 36.951275453228085], [-122.027098149976, 36.95139988796086], [-122.02720108147788, 36.951551987515835], [-122.02733173005402, 36.95166891557778], [-122.02737457908067, 36.95166332024192], [-122.0273977296337, 36.95161928959277], [-122.02747180224709, 36.95162949933665], [-122.02759333744766, 36.95173722372801], [-122.02765074492027, 36.951756993401844], [-122.02768134868218, 36.95173519915058], [-122.02774372542692, 36.95174892609775], [-122.0277423378702, 36.95164985789957], [-122.02779932568968, 36.95164364547733], [-122.02796408920828, 36.951786027726335], [-122.02797030063236, 36.951819848070556], [-122.02802444746136, 36.95188443035006], [-122.02810716232987, 36.95192109161855], [-122.02819175710961, 36.951878959057424], [-122.02827874596836, 36.9519016192222], [-122.02833419806011, 36.95192791625688], [-122.02844769797372, 36.952027275755015], [-122.02864079028103, 36.95208476339791], [-122.0288066343124, 36.952104135438816], [-122.02888173125386, 36.952032911331585], [-122.02889822559207, 36.952003485775144], [-122.02889304399625, 36.95197493472795], [-122.0290545334831, 36.95195057574238], [-122.02917591807892, 36.951987510461], [-122.02930934159146, 36.95205678665445], [-122.02940825809375, 36.95205948685323], [-122.02954624804606, 36.95194612870158], [-122.02968142751283, 36.95192937935693], [-122.02986546653345, 36.95188002096281], [-122.02994441588933, 36.95178415671913], [-122.03001194768918, 36.95178132489397], [-122.03025113113253, 36.95172183655151], [-122.03023835977906, 36.95166232125058], [-122.03025151550293, 36.9516422215398], [-122.03040994445574, 36.951742524195325], [-122.03060286206203, 36.95172985617442], [-122.03070819530373, 36.95169977415631], [-122.03072905130006, 36.951678233232016], [-122.0308056669331, 36.95170663759402], [-122.03101243729132, 36.95170163455453], [-122.03116766045973, 36.95162183636816], [-122.03132336544984, 36.951599222789014], [-122.03139721056137, 36.951534589431084], [-122.03141901160224, 36.95140362282176], [-122.03145911733196, 36.95139693913173], [-122.03149200412952, 36.95141134070425], [-122.0315050114062, 36.951437997294434], [-122.03144692854956, 36.951551940325764], [-122.0314836853147, 36.95160546387928], [-122.03148341879667, 36.95163490376161], [-122.03157649558054, 36.951609888005656], [-122.0316896449323, 36.951670891764714], [-122.03170827750067, 36.95170942327834], [-122.03179877808451, 36.95170839204461], [-122.03185276772764, 36.95173961990676], [-122.0319620043074, 36.95171062006147], [-122.03206772400388, 36.95171816892007], [-122.03219403262874, 36.95179375262205], [-122.03274128348626, 36.95186509201149], [-122.03288710470082, 36.9519071547321], [-122.03356971807854, 36.95195191708035], [-122.03372187906145, 36.95190031334859], [-122.0337398712244, 36.951752653187434], [-122.03379581974767, 36.95173411063655], [-122.03383237591727, 36.95177602070454], [-122.03394795390832, 36.95176599568616], [-122.03400128174637, 36.95174916282223], [-122.03401582271256, 36.951682200712106], [-122.03411494475127, 36.95169541467493], [-122.03419160041717, 36.9516642595098], [-122.03421781101561, 36.95169079254341], [-122.03422238699024, 36.95177155354918], [-122.03425591000254, 36.95184778908731], [-122.03441183174935, 36.95191527468537], [-122.03446256670102, 36.95188326368351], [-122.03451256558655, 36.951930252356824], [-122.0345395105403, 36.95193600237672], [-122.03459492285208, 36.951875888397204], [-122.03466170244802, 36.951862403627665], [-122.03468196623307, 36.95187880798094], [-122.03468765404644, 36.951967191908444], [-122.03474666594218, 36.952015148682676], [-122.03485543311137, 36.95198821150985], [-122.03489131064448, 36.951999132932244], [-122.03491134708054, 36.95202539653141], [-122.03523430391459, 36.95204195477447], [-122.03540058806733, 36.95212154345986], [-122.03554208958042, 36.95214906052652], [-122.03557470688949, 36.95220569327915], [-122.03579037964661, 36.95230942173832], [-122.03582129864375, 36.95229457924219], [-122.0360443374625, 36.95232537078717], [-122.03609457620958, 36.95238265081308], [-122.03608777841042, 36.952452486018615], [-122.03631161541797, 36.952560143297404], [-122.03636367758236, 36.952546317072915], [-122.03636980771198, 36.952556050235906], [-122.03634453568458, 36.95256578984028], [-122.03635286181431, 36.95257528679501], [-122.03642597293191, 36.952571208903095], [-122.03650597859586, 36.95263222935592], [-122.0365877698894, 36.95264534429412], [-122.03677693185729, 36.95263887789374], [-122.03683334612396, 36.95257571442275], [-122.0369064879884, 36.952569299042956], [-122.0369633840781, 36.952640740540986], [-122.03716425223129, 36.952738192926674], [-122.03737577964573, 36.95275448039028], [-122.03743152528651, 36.95279629765557], [-122.03745800842914, 36.95285372993912], [-122.03756901446093, 36.952909698879175], [-122.03763328031354, 36.95286462196071], [-122.03768940820764, 36.95288029149214], [-122.03778331459955, 36.95287925126835], [-122.03790799511779, 36.95283458767276], [-122.03800943372664, 36.95282126565122], [-122.03825496084771, 36.95290200572552], [-122.03836486619271, 36.952909414380215], [-122.03838516236482, 36.95289253678835], [-122.03836686891268, 36.95288230994691], [-122.03836668484853, 36.95286120924534], [-122.0384106549164, 36.952841768126234], [-122.03846625088742, 36.95284516741346], [-122.03850811099474, 36.95287472738301], [-122.03866968747134, 36.95287378661969], [-122.03868115285276, 36.95286324731619], [-122.0386495082984, 36.952838055839266], [-122.03866183083723, 36.95282167183309], [-122.0387773431096, 36.95280301673058], [-122.03891787666409, 36.95284892675616], [-122.03902046260372, 36.95291313418299], [-122.03909304051069, 36.95297995455986], [-122.03919540888995, 36.953009806894315], [-122.03942609238362, 36.95302355326069], [-122.0396214905832, 36.95299457834401], [-122.03976519886665, 36.9529956608675], [-122.03994657664121, 36.953094667225656], [-122.04004767923824, 36.95305575861438], [-122.0400398086508, 36.953023435998254], [-122.03999849964426, 36.95301098376534], [-122.04001659995792, 36.95298374237916], [-122.04014908216801, 36.95299952329687], [-122.04029835017721, 36.952983155903276], [-122.0403782316936, 36.95300969680666], [-122.04043177735203, 36.95299578878133], [-122.04046873941984, 36.9529405072671], [-122.0404940999895, 36.95295918998933], [-122.04052655218626, 36.95295584227095], [-122.04053398849531, 36.95294525147776], [-122.04051707151686, 36.95292265959515], [-122.04054844593068, 36.95290782604017], [-122.04063072486555, 36.952919973749346], [-122.04068520909345, 36.95298608688328], [-122.04074940649282, 36.953016794603485], [-122.04084282078234, 36.95301627930744], [-122.04089604505714, 36.95298090989738], [-122.04094535409877, 36.95296958005175], [-122.04087661227106, 36.9529008861045], [-122.04088683464717, 36.952868635343556], [-122.04096720924825, 36.95289041735909], [-122.04105360265909, 36.95285283145429], [-122.04116558936516, 36.95291027280838], [-122.0412414026779, 36.9529009626289], [-122.04128794310262, 36.9528648171473], [-122.04131494723579, 36.95278274757534], [-122.04135601195787, 36.95273782657706], [-122.04138343652279, 36.952730302284166], [-122.04143771529998, 36.9527323270338], [-122.04153278725434, 36.95279497342527], [-122.0415852515733, 36.95280154155865], [-122.04165594670339, 36.952449366638646], [-122.04168379050478, 36.95242020729412], [-122.04178426067787, 36.952427318423666], [-122.04183422194696, 36.95238701625888], [-122.04188642827366, 36.952307140210614], [-122.04187450631079, 36.952236509474666], [-122.04189654011422, 36.95221702547343], [-122.04188726883844, 36.952153375441796], [-122.04191481959315, 36.952097810572695], [-122.04198758424083, 36.95201930366679], [-122.04205687956375, 36.9519900385049], [-122.04216244023158, 36.95186672769074], [-122.04217085132068, 36.951819030056335], [-122.0421257528792, 36.951751999529094], [-122.04214994504848, 36.95171410808248], [-122.04238399234377, 36.95155260300164], [-122.0424141369062, 36.95145939617821], [-122.04250275203941, 36.9514057764667], [-122.04262064133923, 36.95128241566777], [-122.04273219260631, 36.95124087284978], [-122.04290591916954, 36.95120439283092], [-122.04293949560022, 36.951145459531176], [-122.04311670239115, 36.95113596160222], [-122.04327115341029, 36.95105335103854], [-122.04328450420219, 36.95104034950027], [-122.0432638616752, 36.950973355272815], [-122.04328441638873, 36.950863020076454], [-122.04338065470606, 36.95088165164798], [-122.04347680168928, 36.9508503242265], [-122.04354878197695, 36.950856880930736], [-122.0436173098512, 36.950818164298], [-122.04364038559689, 36.9507870282063], [-122.04364628116257, 36.95073860045228], [-122.04360381467447, 36.9506482750542], [-122.0436140876469, 36.9506245125717], [-122.04371716368463, 36.95064701316042], [-122.04377058526408, 36.95070868164402], [-122.04380033927303, 36.95071680481665], [-122.04387974990468, 36.95069968241416], [-122.04391165527353, 36.95065613262195], [-122.0439123177445, 36.950614128433344], [-122.0439370759525, 36.95060055580785], [-122.04395628807919, 36.95062607450724], [-122.04397019168756, 36.95061768866829], [-122.04398628462893, 36.950665713512805], [-122.04402791696293, 36.950702551628005], [-122.04407941283242, 36.9506920575158], [-122.04418136781345, 36.95062523405021], [-122.044219076453, 36.95067919348944], [-122.04425162283569, 36.95063936062803], [-122.04427082718144, 36.95042105001443], [-122.04438835726076, 36.950383691724745], [-122.04442368863593, 36.950325266436494], [-122.04479763595761, 36.95037698820605], [-122.04486000014627, 36.950355553496344], [-122.0449580914808, 36.95024495659546], [-122.04509444110064, 36.95028221901994], [-122.04515446717728, 36.95025395257854], [-122.04520331750035, 36.950263175901604], [-122.0452570048642, 36.95021601616778], [-122.04529194547322, 36.95015860872302], [-122.04531566997358, 36.949945398204086], [-122.04536056023522, 36.94990519864878], [-122.0454030966769, 36.949902199830916], [-122.04542753694341, 36.949918873210535], [-122.04545588501286, 36.95008567529541], [-122.04548399714449, 36.950063066712275], [-122.04563283588755, 36.95006845821076], [-122.04572650166841, 36.95009332302731], [-122.04576163884246, 36.950080783954505], [-122.04586513154632, 36.95008839938121], [-122.0458313542473, 36.94997525228947], [-122.04591845057409, 36.94994743670481], [-122.04597060382783, 36.949901657771775], [-122.04627824772672, 36.94977623654716], [-122.0463728849018, 36.94972351266355], [-122.04648009723265, 36.949621908104156], [-122.0464916136547, 36.94957417164032], [-122.04645460529804, 36.94946953335564], [-122.04648795627082, 36.94944311960627], [-122.046517087541, 36.94944609283463], [-122.04656787256083, 36.949485489680555], [-122.04663978468447, 36.9494895481702], [-122.04673796838597, 36.94953289691443], [-122.04689848967625, 36.94946607538344], [-122.04694245307863, 36.94947802041956], [-122.04704954018723, 36.94960543990637], [-122.04723321656871, 36.949644474411215], [-122.04728559778741, 36.94976148906161], [-122.04737444524883, 36.94987952651698], [-122.04739981614868, 36.94988352542257], [-122.04759507087392, 36.94986632015948], [-122.04788055262418, 36.949761044753885], [-122.04819017820014, 36.949710800922595], [-122.0484752681339, 36.949587079186266], [-122.04855369267167, 36.94948455279525], [-122.04858186182508, 36.94939113981146], [-122.0486421167939, 36.949308071660205], [-122.04875637173879, 36.949269653870914], [-122.04910152963078, 36.94925592221814], [-122.04920641288048, 36.949207202635456], [-122.04926650965591, 36.94914693365551], [-122.04934575241732, 36.94911729309725], [-122.04945323977977, 36.94900378277661], [-122.04960601343927, 36.94894343455402], [-122.04969429454053, 36.948866775698114], [-122.04975645233982, 36.94883851186223], [-122.04979383126408, 36.948860396958246], [-122.0497999984737, 36.948890030819015], [-122.04968447938303, 36.94908202471762], [-122.04965520030709, 36.94922262823248], [-122.04970783500056, 36.94926251372483], [-122.04971121279289, 36.94929751971248], [-122.04973393988034, 36.94932118747737], [-122.04999906037207, 36.949424262251064], [-122.05046147248855, 36.94952882779895], [-122.05054313598798, 36.949510987761705], [-122.05061290105202, 36.949466401779645], [-122.05077297693278, 36.9494181462105], [-122.05088811996293, 36.9494166885398], [-122.05105060303323, 36.94945570246952], [-122.05119667313166, 36.94941487370123], [-122.05125711366523, 36.949413175568694], [-122.05132571616711, 36.949448611394445], [-122.0513727253393, 36.94953665491088], [-122.05145463641341, 36.94961386488851], [-122.05157194537395, 36.949630599793515], [-122.05167682837964, 36.9495994728168], [-122.05193775876843, 36.94941873303416], [-122.05200362258161, 36.94929320274966], [-122.05204904243904, 36.94926735579012], [-122.0520971596363, 36.94926450823252], [-122.05218636249171, 36.94930220436313], [-122.05226434175954, 36.949410749146516], [-122.05232066630256, 36.94952760459649], [-122.05241538417599, 36.94961822794441], [-122.05244660236124, 36.94967266052527], [-122.05259768281833, 36.94974445625474], [-122.05275851738658, 36.94973309069796], [-122.05287430534842, 36.94976844963486], [-122.05298914442355, 36.94975769636106], [-122.05303061165819, 36.94968025443377], [-122.05294084950286, 36.949634449362556], [-122.05290817503659, 36.949564395242895], [-122.05294198275533, 36.94948138237213], [-122.05299424247075, 36.94945373257636], [-122.05301641775492, 36.949406732097486], [-122.05308466075589, 36.94936892291828], [-122.05329170959445, 36.94936616468075], [-122.05345508799981, 36.94940041857811], [-122.05362745320424, 36.94938889096767], [-122.05374113775756, 36.949322796691845], [-122.05386462034221, 36.94917352519621], [-122.05392136031479, 36.94913587062813], [-122.05393030349164, 36.94909575929395], [-122.05407911827852, 36.94905120803892], [-122.05460784854533, 36.949025707314206], [-122.05463104765651, 36.949034624368224], [-122.05471423760332, 36.94916268275343], [-122.0548304120556, 36.94921649008029], [-122.05491265106382, 36.94929842725194], [-122.05500543457171, 36.94933409627923], [-122.05514180673872, 36.94930747388982], [-122.05532433133169, 36.949231228912566], [-122.05557738496877, 36.949227852895916], [-122.05560057752244, 36.94923676984706], [-122.05567081236218, 36.94933080743962], [-122.05574246387805, 36.949518325556866], [-122.05579763258916, 36.949573263175175], [-122.05586885547886, 36.949614641696], [-122.05600105060836, 36.949570877517196], [-122.05605872141263, 36.94951060580102], [-122.05603379922611, 36.94939344383173], [-122.05604995726321, 36.94936485328293], [-122.05633300733956, 36.94926717478251], [-122.05642067982451, 36.94918025610581], [-122.05658269760939, 36.94913732055699], [-122.05672101863247, 36.94907226062269], [-122.05679831087845, 36.949017347271166], [-122.05687865585939, 36.94899877418943], [-122.05688544819543, 36.949040824989154], [-122.05684934780396, 36.94910710481677], [-122.05685353177978, 36.949129329096415], [-122.05701196955678, 36.94924876601053], [-122.0571416995115, 36.94928513492288], [-122.05728826256075, 36.949304422074555], [-122.05747999403629, 36.94926979389748], [-122.057534691499, 36.94924217977112], [-122.05761877896683, 36.949155390976614], [-122.05765118260759, 36.949027836927534], [-122.05771279026825, 36.948998680377485], [-122.05777431374008, 36.94902111812081], [-122.05785093390358, 36.9491352693208], [-122.05785587672486, 36.94918118025476], [-122.05782173762015, 36.94925439138536], [-122.0577361923, 36.94929519218776], [-122.05767265785717, 36.949373192923765], [-122.0576352316648, 36.94939766372449], [-122.05746989759383, 36.94944289981801], [-122.05745163734979, 36.94946977394622], [-122.05750345954269, 36.949514720712], [-122.05762271779165, 36.94954991054384], [-122.05785972754603, 36.94957291272126], [-122.0583496919826, 36.9496827294669], [-122.0590345476517, 36.94974808696346], [-122.05960385909886, 36.949893907060975], [-122.05973692229375, 36.94987163575305], [-122.05984770097747, 36.94980522016477], [-122.06001091606642, 36.949856224774834], [-122.06002212670488, 36.94982672025704], [-122.05996651755196, 36.949772090582556], [-122.05996406671379, 36.94974983329872], [-122.06001156497135, 36.94971399452345], [-122.06025881516287, 36.949785584062305], [-122.06032315932563, 36.94978704264195], [-122.060426792436, 36.949768168968546], [-122.06053125729902, 36.94972140029462], [-122.06056344031965, 36.94969563793312], [-122.06059579230937, 36.949566691347], [-122.06062242347605, 36.949529882574154], [-122.06070329367644, 36.94950590979264], [-122.06079914070048, 36.94951508326199], [-122.06082291366022, 36.94949786406102], [-122.06080825441362, 36.949420082881666], [-122.06082125329887, 36.94939192685868], [-122.06093636446431, 36.949297526084266], [-122.06099473347645, 36.94922102017038], [-122.0611254166426, 36.949179287244505], [-122.0611593377225, 36.94915348792356], [-122.06121982173853, 36.9490351166426], [-122.06131169766381, 36.94897465549418], [-122.06135857464406, 36.94897369068901], [-122.06139196790642, 36.94903992808117], [-122.06148902445764, 36.94908672576125], [-122.06159628873537, 36.94918072084644], [-122.06161693069143, 36.94917472089969], [-122.06161451955074, 36.94915385545501], [-122.06155103072797, 36.949070111823765], [-122.06155829537897, 36.949025340639494], [-122.06162332374114, 36.94904909653284], [-122.06168325077333, 36.94913012838454], [-122.06173743700364, 36.94914015739398], [-122.06175763873769, 36.94912022368186], [-122.06173737431845, 36.9490300109504], [-122.06178403208504, 36.948967692158995], [-122.06181504573273, 36.94896008339787], [-122.06184500805243, 36.9489734071795], [-122.06187568448681, 36.949009029492686], [-122.06195164792547, 36.9490478922896], [-122.06198052190776, 36.94902777837161], [-122.06193907375848, 36.94898123105142], [-122.06194540745156, 36.94896157050816], [-122.0620078570551, 36.948958886418474], [-122.0620214243203, 36.94894885282085], [-122.0620151125554, 36.94891412073212], [-122.06202889984206, 36.94891104949848], [-122.06209377520234, 36.94892922790022], [-122.06219004712635, 36.948897963447585], [-122.06237060612354, 36.94889423366765], [-122.06258935864984, 36.948998851224154], [-122.06323489558316, 36.94889288516558], [-122.06357187920499, 36.94885984548849], [-122.06385329847971, 36.94875174095224], [-122.0640959416096, 36.948691628937176], [-122.06456102320342, 36.94854097449449], [-122.06471858187376, 36.94847205105165], [-122.06479862350976, 36.94841866348853], [-122.06498598038739, 36.94822904767579], [-122.06519809062085, 36.948057033872644], [-122.06544661194597, 36.94800436414658], [-122.06562017471526, 36.948030042639026], [-122.06578523690612, 36.94808017804994], [-122.06595951691297, 36.948090428806644], [-122.06606996051939, 36.94812081691146], [-122.06615332309941, 36.94822766720315], [-122.06624260236423, 36.94827299103862], [-122.06706561778418, 36.94836379908187], [-122.06739082530086, 36.948382432293776], [-122.06751782032654, 36.9488155603988], [-122.06761676178539, 36.94904189937494], [-122.06792309490805, 36.94952773714283], [-122.06793895503253, 36.94971119959803], [-122.0679343454883, 36.950087623210614], [-122.06805749980943, 36.950427772354274], [-122.06805643414397, 36.95054237428347], [-122.06796307339697, 36.950663428150456], [-122.06777696822, 36.950709078099415], [-122.06771619330782, 36.95086564127734], [-122.06779994105383, 36.95095518240037], [-122.06812690327256, 36.95111318216294], [-122.06811090039132, 36.951181861933776], [-122.06805968948346, 36.951253842260286], [-122.06788807512804, 36.951281017682696], [-122.06778277227926, 36.95138177400194], [-122.06772754206365, 36.95153395132189], [-122.06771978126912, 36.95165909260633], [-122.0680420492053, 36.951967829857765], [-122.06812588320963, 36.95216580748536], [-122.0681693405599, 36.95233621900399], [-122.06831478804484, 36.9525239954068], [-122.06872419290103, 36.95279534252364], [-122.06897486601537, 36.95300842904562], [-122.0692062155062, 36.95329105075665], [-122.06938113963216, 36.95338025678126], [-122.06948313863931, 36.95339760884069], [-122.06980598276522, 36.953410128507514], [-122.0698786616362, 36.95350841373612], [-122.0698252328141, 36.9535839258506], [-122.06950571334364, 36.95380505175995], [-122.06942165527087, 36.95398526929539], [-122.06943397397343, 36.9541960332302], [-122.06938467584715, 36.954299777998195], [-122.06902079960665, 36.95456471898835], [-122.06886172776204, 36.954658983040154], [-122.06873810377472, 36.954723472157625], [-122.06865483829338, 36.954698293765226], [-122.06864327164689, 36.95464267451517], [-122.06887819959658, 36.95406840040498], [-122.06892270961782, 36.95388969864042], [-122.06884812537344, 36.95375966508715], [-122.06855872456357, 36.95345995295863], [-122.06842319603078, 36.9533868400937], [-122.0681216509384, 36.95332772954739], [-122.0680559964884, 36.95330088821226], [-122.06797752493101, 36.953233417681375], [-122.06787874666385, 36.9529895024909], [-122.06776064260734, 36.95281511459529], [-122.06760784331921, 36.9527084076524], [-122.06749354475599, 36.95283202083475], [-122.06731147127354, 36.953509755869966], [-122.0671964328355, 36.95371271793017], [-122.06692050523424, 36.9539693660314], [-122.06663045951923, 36.9540919154744], [-122.06653449044232, 36.954251788730495], [-122.06651930239786, 36.954584064401935], [-122.06647693469682, 36.954650804610594], [-122.06596958916494, 36.954985398770404], [-122.06572863414759, 36.95531853794188], [-122.06542207700863, 36.95567932278582], [-122.06527830979539, 36.95580829671665], [-122.06531331866105, 36.95900055005345], [-122.06264064297184, 36.959352761965704], [-122.06268347349351, 36.96109174063365], [-122.06526452614676, 36.96126727069469], [-122.06633445383105, 36.964999438729], [-122.06831124428966, 36.964973257879294], [-122.06910778085157, 36.96786314008338], [-122.07088081956233, 36.97243884944087], [-122.07032235748873, 36.97756907675994], [-122.06485442830011, 36.977471182111756], [-122.0648511692788, 36.977958384393396], [-122.06075190328298, 36.97797809748548], [-122.06131573172938, 36.97920179272516], [-122.06114745606963, 36.9796260110937], [-122.06108906137518, 36.97969338998289], [-122.06105379597354, 36.979780478404415], [-122.06117856411856, 36.980650496253354], [-122.05982682766422, 36.980622147871344], [-122.06081144100875, 36.98146376317597], [-122.06150965822347, 36.98217765222342], [-122.06225113148135, 36.982578401322854], [-122.06313848966937, 36.98298031984933], [-122.06444536109237, 36.98362594210208], [-122.06492275541518, 36.98390050547058], [-122.06536742506448, 36.98418614470863], [-122.0660301458616, 36.98467311264215], [-122.06662921314165, 36.98519130934247], [-122.06718698784766, 36.985784948089275], [-122.0675272488764, 36.986198673012844], [-122.06782876617527, 36.98660811618383], [-122.06826121880131, 36.987288214392144], [-122.06850619669638, 36.98774324692801], [-122.06888284746937, 36.98895168112959], [-122.06898331298903, 36.989627405314465], [-122.06909151325179, 36.99116505059009], [-122.06919158021498, 36.991478767997954], [-122.06936393000232, 36.99177159922555], [-122.06964922633891, 36.992533153620336], [-122.06968982653451, 36.99293372058492], [-122.06964093226229, 36.993571170672084], [-122.06930402867621, 36.99411395773353], [-122.06912118009527, 36.99431330511661], [-122.06896046287538, 36.994553249926284], [-122.0688362083041, 36.994848672932726], [-122.06865440468137, 36.995491581285066], [-122.06863360604915, 36.99576656796076], [-122.06865429751542, 36.996053890174224], [-122.06877464310314, 36.996842636055455], [-122.06877546036911, 36.99693253738186], [-122.0687334415793, 36.99719963379256], [-122.0685596649095, 36.99765340731826], [-122.06851592470866, 36.997819583835174], [-122.06850042122387, 36.99798896747302], [-122.06838271958355, 36.998652491761746], [-122.0683742229953, 36.99882857981158], [-122.0683999301296, 36.99900380251709], [-122.06845924684825, 36.999173697013106], [-122.06894373403487, 37.00020647802961], [-122.06932544258308, 37.0008378528359], [-122.06971085582947, 37.001409293066374], [-122.07054097762214, 37.00152849853043], [-122.07090629989547, 37.00155376765001], [-122.07117168055058, 37.00170448262152], [-122.07155607343311, 37.001668875715765], [-122.07165437259705, 37.00171548804474], [-122.07191730038524, 37.00188117713371], [-122.07207632070235, 37.00202097934002], [-122.07241144908133, 37.00240731588367], [-122.07257502303597, 37.002637681325865], [-122.07271473593322, 37.0028779389065], [-122.056101497679, 37.0029669026823], [-122.05113220454085, 37.00011310681684], [-122.05128215014541, 37.001486805491666], [-122.0529329943429, 37.00931290824094], [-122.04980282265787, 37.01084070440258], [-122.04979275038217, 37.01034950113987], [-122.04708576227198, 37.00746066535833], [-122.04587836688792, 37.007002717301745], [-122.04592245211543, 37.005978344011716], [-122.04435530573419, 37.00623368033964], [-122.04359378547021, 37.00605398689397], [-122.04355728864647, 37.00552857893401], [-122.04296891174022, 37.00465722388099], [-122.04220639063414, 37.0033190367714], [-122.04153505362932, 37.00254219679109], [-122.0407065970049, 37.001062776884375], [-122.03966007704862, 36.99951809142288], [-122.03820888509786, 36.99790728612401], [-122.03715864825813, 36.99818622006109], [-122.0365981609896, 36.998145057242844], [-122.03686183111405, 36.99690641561931], [-122.03648318759004, 36.996342619165304], [-122.03539783560386, 36.996428533207855], [-122.03343714681101, 36.99507652648885], [-122.03316941108825, 36.994310202819584], [-122.03297632703845, 36.99345693859075], [-122.03285272464238, 36.99192294316483], [-122.03149312898653, 36.99136221106496], [-122.0292674622957, 36.99191935539813], [-122.02907497521473, 36.99192762815518], [-122.02802815966622, 36.99221459498019], [-122.02803585845322, 36.992152878032336], [-122.02799627224114, 36.99203406197773], [-122.02793138200988, 36.99190700072045], [-122.02784247302777, 36.99178410748886], [-122.02712184783437, 36.991101094824074], [-122.02638611245973, 36.991208539824434], [-122.02651470437685, 36.991359888076644], [-122.0255085569578, 36.99135858837614], [-122.02445992469197, 36.991455504211046], [-122.024414321245, 36.99117316704273], [-122.02293078695202, 36.991318557447414], [-122.020029, 36.991334], [-122.019933, 36.991666], [-122.018928, 36.991538], [-122.017681, 36.991347], [-122.017816, 36.994517], [-122.017524, 36.994527], [-122.016802, 36.993909], [-122.016163, 36.993561], [-122.016154, 36.993121], [-122.016195, 36.992701], [-122.01597, 36.992387], [-122.015704, 36.992159], [-122.015364, 36.9924], [-122.014927, 36.992899]], [[-122.014927, 36.992899], [-122.014388, 36.991708], [-122.014248, 36.991472], [-122.011782, 36.991487], [-122.011607, 36.991782], [-122.012106, 36.991965], [-122.012365, 36.991889], [-122.012464, 36.991838], [-122.012714, 36.991941], [-122.012742, 36.991994], [-122.013156, 36.992384], [-122.013906, 36.99288], [-122.013078, 36.993338], [-122.013027, 36.992922], [-122.012934, 36.992752], [-122.013006, 36.992713], [-122.012765, 36.99245], [-122.012688, 36.992391], [-122.011955, 36.992431], [-122.01207099157021, 36.99211502300465], [-122.01132, 36.992124], [-122.011302, 36.992301], [-122.011296, 36.993155], [-122.011322, 36.993673], [-122.011367, 36.99386], [-122.011593, 36.994327], [-122.011632, 36.994442], [-122.011653, 36.994661], [-122.011613, 36.994902], [-122.011544, 36.995059], [-122.011444, 36.995204], [-122.010254, 36.996462], [-122.01003, 36.996788], [-122.009868, 36.997067], [-122.010501, 36.997355], [-122.010458, 36.997403], [-122.010545, 36.997306], [-122.010689, 36.997144], [-122.010752, 36.997074], [-122.01091, 36.996896], [-122.011349, 36.99669], [-122.011511, 36.996479], [-122.011928, 36.996129], [-122.012065, 36.995993], [-122.012155, 36.995866], [-122.012258, 36.995542], [-122.012232, 36.995542], [-122.012357, 36.995165], [-122.012711, 36.994789], [-122.01271, 36.99455], [-122.012389, 36.994402], [-122.012215, 36.994129], [-122.013444, 36.993993], [-122.013436, 36.993936], [-122.013397, 36.993941], [-122.01327, 36.993811], [-122.014092, 36.993022], [-122.014257, 36.993172], [-122.014528, 36.993291], [-122.014684, 36.993281], [-122.014753, 36.993211], [-122.014927, 36.992899]], [[-122.00145872643519, 36.98144940931842], [-121.99906606317201, 36.98164790705399], [-121.99870196713825, 36.98168380710797], [-122.00145872643519, 36.98144940931842]], [[-122.004681, 36.988324], [-122.003466, 36.988278], [-122.004673, 36.988324], [-122.004681, 36.988324]], [[-122.00684969462587, 36.98137582772491], [-122.006879, 36.981467], [-122.00684985931483, 36.98137581785603], [-122.00684969462587, 36.98137582772491]], [[-122.010397, 36.98973], [-122.009787, 36.991105], [-122.009623, 36.991475], [-122.010397, 36.98973]], [[-122.013145, 36.988654], [-122.01327348126794, 36.98865938904898], [-122.011139, 36.988568], [-122.013145, 36.988654]], [[-122.011139, 36.988568], [-122.010909, 36.988559], [-122.01090898325027, 36.98855903830845], [-122.011139, 36.988568]], [[-122.01471889422277, 36.981326935149504], [-122.015063, 36.981262], [-122.01506575015027, 36.98126122652023], [-122.01471889422277, 36.981326935149504]], [[-122.01726760776903, 36.97901621798039], [-122.01721220075838, 36.97899963499144], [-122.01721185986533, 36.979000630757355], [-122.01726760776903, 36.97901621798039]], [[-122.01794858886593, 36.979977322041314], [-122.01834271964415, 36.980063628937245], [-122.01762757813724, 36.979885408372915], [-122.01794858886593, 36.979977322041314]], [[-122.019044, 36.976277], [-122.01905549566274, 36.97627768973977], [-122.01901735925381, 36.97621661430863], [-122.019044, 36.976277]], [[-122.01975386225841, 36.976256617194366], [-122.01968785776307, 36.97616951334022], [-122.01975, 36.97626], [-122.01975386225841, 36.976256617194366]], [[-122.022237, 36.98206], [-122.022523, 36.982784], [-122.021495, 36.980181], [-122.022237, 36.98206]], [[-122.02176406731992, 36.98982490661102], [-122.02239006794929, 36.988959906133864], [-122.02251947853831, 36.988724829276144], [-122.02302177592253, 36.98805803933618], [-122.0231947930238, 36.98775213662268], [-122.0233370137156, 36.987436186537735], [-122.02344754298365, 36.987112181699295], [-122.0235256857278, 36.98678216526306], [-122.02357997164322, 36.98629982073104], [-122.02382906751554, 36.98614390567445], [-122.02422206788135, 36.98596090625347], [-122.02448406723067, 36.985870906196865], [-122.02540867561743, 36.98561281230415], [-122.024371, 36.985892], [-122.0239, 36.986075], [-122.023568, 36.986276], [-122.023539, 36.986611], [-122.023478, 36.986943], [-122.023324, 36.987431], [-122.023182, 36.987747], [-122.023009, 36.988053], [-122.022249, 36.989074], [-122.02153699158143, 36.990113694395994], [-122.02176406731992, 36.98982490661102]], [[-122.022981, 36.979067], [-122.022327, 36.979239], [-122.023379, 36.978963], [-122.022981, 36.979067]], [[-122.02651590906704, 36.982411422311664], [-122.02601793617565, 36.9813415140476], [-122.02401943598838, 36.977886610731105], [-122.0233276434514, 36.9762406800905], [-122.02323288572433, 36.97596025782299], [-122.02309479467101, 36.97563436242561], [-122.02291953065861, 36.97527716289424], [-122.02278759355961, 36.974942051489485], [-122.02279170217615, 36.97454475986513], [-122.02283627937636, 36.97409463584721], [-122.02278106605999, 36.974071905158134], [-122.022821, 36.97409], [-122.022777, 36.97454], [-122.022773, 36.974937], [-122.022904, 36.975272], [-122.02308, 36.975629], [-122.023218, 36.975955], [-122.023313, 36.976236], [-122.024004, 36.977882], [-122.026005, 36.981337], [-122.02651590906704, 36.982411422311664]], [[-122.023726, 36.978812], [-122.02375071186425, 36.97879659322043], [-122.023748, 36.978798], [-122.023726, 36.978812]], [[-122.024125, 36.978561], [-122.024052, 36.978608], [-122.02405, 36.97861], [-122.024125, 36.978561]]]}}]}